STARLINK-1603
1 26162C 20057AX  21325.10591745  .00003262  00000-0  21865-3 0  3259
2 26162  53.0511 142.7502 0001805  74.6829 316.2800 15.06382998    19
